{"fetched_at":"2026-07-19T07:05:17.916Z","source":"https://celestrak.org/NORAD/elements/gp.php?NAME=JILIN&FORMAT=JSON","constellation":"jilin-1-kuanfu","records":[{"OBJECT_NAME":"JILIN-1 KUANFU 01","OBJECT_ID":"2020-003A","EPOCH":"2026-07-18T19:29:00.485088","CLASSIFICATION_TYPE":"U","MEAN_MOTION":15.10878541,"ECCENTRICITY":0.0009621,"INCLINATION":97.5017,"RA_OF_ASC_NODE":273.1509,"ARG_OF_PERICENTER":184.2127,"MEAN_ANOMALY":175.9023,"EPHEMERIS_TYPE":0,"NORAD_CAT_ID":45016,"ELEMENT_SET_NO":999,"REV_AT_EPOCH":36010,"BSTAR":0.000098921,"MEAN_MOTION_DOT":0.00001584,"MEAN_MOTION_DDOT":0},{"OBJECT_NAME":"JILIN-1 KUANFU-01B","OBJECT_ID":"2021-061A","EPOCH":"2026-07-18T20:28:25.063104","CLASSIFICATION_TYPE":"U","MEAN_MOTION":15.09816499,"ECCENTRICITY":0.0005593,"INCLINATION":97.5199,"RA_OF_ASC_NODE":275.4578,"ARG_OF_PERICENTER":324.8854,"MEAN_ANOMALY":35.2006,"EPHEMERIS_TYPE":0,"NORAD_CAT_ID":49003,"ELEMENT_SET_NO":999,"REV_AT_EPOCH":27812,"BSTAR":0.000052919,"MEAN_MOTION_DOT":0.00000793,"MEAN_MOTION_DDOT":0},{"OBJECT_NAME":"JILIN-1 KUANFU 01C","OBJECT_ID":"2022-048A","EPOCH":"2026-07-18T20:17:27.876192","CLASSIFICATION_TYPE":"U","MEAN_MOTION":15.09609756,"ECCENTRICITY":0.0017602,"INCLINATION":97.5248,"RA_OF_ASC_NODE":276.4411,"ARG_OF_PERICENTER":206.9969,"MEAN_ANOMALY":153.0346,"EPHEMERIS_TYPE":0,"NORAD_CAT_ID":52443,"ELEMENT_SET_NO":999,"REV_AT_EPOCH":23197,"BSTAR":0.000083762,"MEAN_MOTION_DOT":0.00001287,"MEAN_MOTION_DDOT":0},{"OBJECT_NAME":"JILIN-1 KUANFU 02A","OBJECT_ID":"2023-127A","EPOCH":"2026-07-18T20:41:01.413024","CLASSIFICATION_TYPE":"U","MEAN_MOTION":15.10829953,"ECCENTRICITY":0.0010538,"INCLINATION":97.5568,"RA_OF_ASC_NODE":293.2813,"ARG_OF_PERICENTER":222.6497,"MEAN_ANOMALY":137.3915,"EPHEMERIS_TYPE":0,"NORAD_CAT_ID":57696,"ELEMENT_SET_NO":999,"REV_AT_EPOCH":16041,"BSTAR":0.00014216,"MEAN_MOTION_DOT":0.00002301,"MEAN_MOTION_DDOT":0},{"OBJECT_NAME":"JILIN-01 KUANFU 02B 1","OBJECT_ID":"2024-169A","EPOCH":"2026-07-18T19:31:27.473088","CLASSIFICATION_TYPE":"U","MEAN_MOTION":15.09069869,"ECCENTRICITY":0.0001238,"INCLINATION":97.5576,"RA_OF_ASC_NODE":288.8518,"ARG_OF_PERICENTER":322.607,"MEAN_ANOMALY":37.5073,"EPHEMERIS_TYPE":0,"NORAD_CAT_ID":61189,"ELEMENT_SET_NO":999,"REV_AT_EPOCH":10059,"BSTAR":0.00010733,"MEAN_MOTION_DOT":0.00001637,"MEAN_MOTION_DDOT":0},{"OBJECT_NAME":"JILIN-01 KUANFU 02B 2","OBJECT_ID":"2024-169B","EPOCH":"2026-07-18T20:37:44.064192","CLASSIFICATION_TYPE":"U","MEAN_MOTION":15.09032385,"ECCENTRICITY":0.0004874,"INCLINATION":97.5569,"RA_OF_ASC_NODE":288.2813,"ARG_OF_PERICENTER":262.4086,"MEAN_ANOMALY":97.6589,"EPHEMERIS_TYPE":0,"NORAD_CAT_ID":61190,"ELEMENT_SET_NO":999,"REV_AT_EPOCH":10060,"BSTAR":0.00013052,"MEAN_MOTION_DOT":0.00002002,"MEAN_MOTION_DDOT":0},{"OBJECT_NAME":"JILIN-01 KUANFU 02B 3","OBJECT_ID":"2024-169C","EPOCH":"2026-07-18T19:15:00.341856","CLASSIFICATION_TYPE":"U","MEAN_MOTION":15.09070405,"ECCENTRICITY":0.0013382,"INCLINATION":97.5565,"RA_OF_ASC_NODE":288.6577,"ARG_OF_PERICENTER":193.1081,"MEAN_ANOMALY":166.9802,"EPHEMERIS_TYPE":0,"NORAD_CAT_ID":61191,"ELEMENT_SET_NO":999,"REV_AT_EPOCH":10059,"BSTAR":0.00012499,"MEAN_MOTION_DOT":0.00001919,"MEAN_MOTION_DDOT":0},{"OBJECT_NAME":"JILIN-01 KUANFU 02B 4","OBJECT_ID":"2024-169D","EPOCH":"2026-07-18T20:05:34.171584","CLASSIFICATION_TYPE":"U","MEAN_MOTION":15.090583,"ECCENTRICITY":0.00143,"INCLINATION":97.5529,"RA_OF_ASC_NODE":288.2167,"ARG_OF_PERICENTER":151.9678,"MEAN_ANOMALY":208.2324,"EPHEMERIS_TYPE":0,"NORAD_CAT_ID":61192,"ELEMENT_SET_NO":999,"REV_AT_EPOCH":10060,"BSTAR":0.00011853,"MEAN_MOTION_DOT":0.00001817,"MEAN_MOTION_DDOT":0},{"OBJECT_NAME":"JILIN-01 KUANFU 02B 5","OBJECT_ID":"2024-169E","EPOCH":"2026-07-18T19:46:47.118144","CLASSIFICATION_TYPE":"U","MEAN_MOTION":15.0908847,"ECCENTRICITY":0.00135,"INCLINATION":97.5578,"RA_OF_ASC_NODE":289.0033,"ARG_OF_PERICENTER":175.0647,"MEAN_ANOMALY":185.0717,"EPHEMERIS_TYPE":0,"NORAD_CAT_ID":61193,"ELEMENT_SET_NO":999,"REV_AT_EPOCH":10060,"BSTAR":0.00010174,"MEAN_MOTION_DOT":0.00001551,"MEAN_MOTION_DDOT":0},{"OBJECT_NAME":"JILIN-01 KUANFU 02B 6","OBJECT_ID":"2024-169F","EPOCH":"2026-07-18T20:20:57.600096","CLASSIFICATION_TYPE":"U","MEAN_MOTION":15.09048743,"ECCENTRICITY":0.001594,"INCLINATION":97.5557,"RA_OF_ASC_NODE":288.9179,"ARG_OF_PERICENTER":208.2162,"MEAN_ANOMALY":151.8205,"EPHEMERIS_TYPE":0,"NORAD_CAT_ID":61194,"ELEMENT_SET_NO":999,"REV_AT_EPOCH":10061,"BSTAR":0.00012362,"MEAN_MOTION_DOT":0.00001898,"MEAN_MOTION_DDOT":0}]}
