JILIN-1 KUANFU 01       
1 45016U 20003A   26199.81181117  .00001584  00000+0  98921-4 0  9996
2 45016  97.5017 273.1509 0009621 184.2127 175.9023 15.10878541360104
JILIN-1 KUANFU-01B      
1 49003U 21061A   26199.85306786  .00000793  00000+0  52919-4 0  9994
2 49003  97.5199 275.4578 0005593 324.8854  35.2006 15.09816499278120
JILIN-1 KUANFU 01C      
1 52443U 22048A   26199.84546153  .00001287  00000+0  83762-4 0  9994
2 52443  97.5248 276.4411 0017602 206.9969 153.0346 15.09609756231979
JILIN-1 KUANFU 02A      
1 57696U 23127A   26199.86182191  .00002301  00000+0  14216-3 0  9993
2 57696  97.5568 293.2813 0010538 222.6497 137.3915 15.10829953160416
JILIN-01 KUANFU 02B 1   
1 61189U 24169A   26199.81351242  .00001637  00000+0  10733-3 0  9993
2 61189  97.5576 288.8518 0001238 322.6070  37.5073 15.09069869100593
JILIN-01 KUANFU 02B 2   
1 61190U 24169B   26199.85953778  .00002002  00000+0  13052-3 0  9995
2 61190  97.5569 288.2813 0004874 262.4086  97.6589 15.09032385100600
JILIN-01 KUANFU 02B 3   
1 61191U 24169C   26199.80208729  .00001919  00000+0  12499-3 0  9990
2 61191  97.5565 288.6577 0013382 193.1081 166.9802 15.09070405100598
JILIN-01 KUANFU 02B 4   
1 61192U 24169D   26199.83720106  .00001817  00000+0  11853-3 0  9992
2 61192  97.5529 288.2167 0014300 151.9678 208.2324 15.09058300100606
JILIN-01 KUANFU 02B 5   
1 61193U 24169E   26199.82415646  .00001551  00000+0  10174-3 0  9992
2 61193  97.5578 289.0033 0013500 175.0647 185.0717 15.09088470100605
JILIN-01 KUANFU 02B 6   
1 61194U 24169F   26199.84788889  .00001898  00000+0  12362-3 0  9992
2 61194  97.5557 288.9179 0015940 208.2162 151.8205 15.09048743100616
